CENTISPACE-1 OBJECT K   
1 68359U 26060K   26094.16969185  .00000130  00000+0  49717-4 0  9996
2 68359  54.9784 337.6182 0015038 331.1576  28.8591 14.75501463  1856
RASSVET-3 1             
1 68360U 26061A   26094.68623751  .00135937  53612-5  44386-3 0  9995
2 68360  82.2954  95.1463 0024823  30.5213 329.7497 15.89997805  1908
RASSVET-3 2             
1 68361U 26061B   26095.57002370  .00065891  37257-6  22214-3 0  9998
2 68361  82.2975  94.1529 0025954  27.1196 333.1425 15.89262246  2042
RASSVET-3 3             
1 68362U 26061C   26095.56986731  .00063281  25655-6  21335-3 0  9993
2 68362  82.2976  94.1525 0025836  26.8812 333.3791 15.89262035  2044
RASSVET-3 4             
1 68363U 26061D   26095.56970112  .00064580  31400-6  21757-3 0  9996
2 68363  82.2975  94.1524 0025834  26.7891 333.4708 15.89278696  2046
RASSVET-3 5             
1 68364U 26061E   26095.56955092  .00064613  31577-6  21746-3 0  9997
2 68364  82.2975  94.1519 0025802  26.8207 333.4392 15.89300334  2042
RASSVET-3 6             
1 68365U 26061F   26095.50612070  .00064290  30281-6  21528-3 0  9998
2 68365  82.2975  94.2228 0025638  27.2134 333.0474 15.89407010  2037
RASSVET-3 7             
1 68366U 26061G   26095.56930781  .00065257  34512-6  21940-3 0  9990
2 68366  82.2975  94.1518 0025597  26.8305 333.4284 15.89331560  2048
RASSVET-3 8             
1 68367U 26061H   26095.56941235  .00065890  37356-6  22171-3 0  9996
2 68367  82.2975  94.1517 0025618  26.7029 333.5555 15.89315272  2048
RASSVET-3 9             
1 68368U 26061J   26095.44163565  .00131706  49699-5  42691-3 0  9997
2 68368  82.2964  94.2913 0024656  27.6163 332.6412 15.90146532  2021
RASSVET-3 10            
1 68369U 26061K   26095.56904082  .00066590  40632-6  22359-3 0  9994
2 68369  82.2975  94.1513 0025444  26.7564 333.5014 15.89366082  2042
RASSVET-3 11            
1 68370U 26061L   26095.56868764  .00064524  31346-6  21633-3 0  9993
2 68370  82.2975  94.1505 0025241  26.6573 333.5990 15.89401418  2045
RASSVET-3 12            
1 68371U 26061M   26095.56836385  .00065886  37574-6  22022-3 0  9992
2 68371  82.2975  94.1502 0025173  26.6355 333.6203 15.89466805  2044
RASSVET-3 13            
1 68372U 26061N   26095.56819424  .00065334  35079-6  21846-3 0  9997
2 68372  82.2975  94.1498 0024986  26.5202 333.7341 15.89466200  2043
RASSVET-3 14            
1 68373U 26061P   26095.44178406  .00069663  55385-6  23226-3 0  9998
2 68373  82.2974  94.2921 0024953  26.8025 333.4529 15.89532022  2024
RASSVET-3 15            
1 68374U 26061Q   26095.56760968  .00064948  33475-6  21631-3 0  9997
2 68374  82.2975  94.1491 0024751  26.3985 333.8541 15.89553797  2045
