[{"OBJECT_NAME":"CENTISPACE-1 OBJECT K","OBJECT_ID":"2026-060K","EPOCH":"2026-04-04T04:04:21.375840","MEAN_MOTION":14.75501463,"ECCENTRICITY":0.00150386,"INCLINATION":54.9784,"RA_OF_ASC_NODE":337.6182,"ARG_OF_PERICENTER":331.1576,"MEAN_ANOMALY":28.8591,"EPHEMERIS_TYPE":0,"CLASSIFICATION_TYPE":"U","NORAD_CAT_ID":68359,"ELEMENT_SET_NO":999,"REV_AT_EPOCH":185,"BSTAR":4.9717379e-5,"MEAN_MOTION_DOT":1.3e-6,"MEAN_MOTION_DDOT":0},{"OBJECT_NAME":"RASSVET-3 1","OBJECT_ID":"2026-061A","EPOCH":"2026-04-04T16:28:10.920864","MEAN_MOTION":15.89997805,"ECCENTRICITY":0.00248239,"INCLINATION":82.2954,"RA_OF_ASC_NODE":95.1463,"ARG_OF_PERICENTER":30.5213,"MEAN_ANOMALY":329.7497,"EPHEMERIS_TYPE":0,"CLASSIFICATION_TYPE":"U","NORAD_CAT_ID":68360,"ELEMENT_SET_NO":999,"REV_AT_EPOCH":190,"BSTAR":0.00044385606,"MEAN_MOTION_DOT":0.00135937,"MEAN_MOTION_DDOT":5.361246e-6},{"OBJECT_NAME":"RASSVET-3 2","OBJECT_ID":"2026-061B","EPOCH":"2026-04-05T13:40:50.047680","MEAN_MOTION":15.89262246,"ECCENTRICITY":0.00259543,"INCLINATION":82.2975,"RA_OF_ASC_NODE":94.1529,"ARG_OF_PERICENTER":27.1196,"MEAN_ANOMALY":333.1425,"EPHEMERIS_TYPE":0,"CLASSIFICATION_TYPE":"U","NORAD_CAT_ID":68361,"ELEMENT_SET_NO":999,"REV_AT_EPOCH":204,"BSTAR":0.00022213694,"MEAN_MOTION_DOT":0.00065891,"MEAN_MOTION_DDOT":3.72567e-7},{"OBJECT_NAME":"RASSVET-3 3","OBJECT_ID":"2026-061C","EPOCH":"2026-04-05T13:40:36.535584","MEAN_MOTION":15.89262035,"ECCENTRICITY":0.00258369,"INCLINATION":82.2976,"RA_OF_ASC_NODE":94.1525,"ARG_OF_PERICENTER":26.8812,"MEAN_ANOMALY":333.3791,"EPHEMERIS_TYPE":0,"CLASSIFICATION_TYPE":"U","NORAD_CAT_ID":68362,"ELEMENT_SET_NO":999,"REV_AT_EPOCH":204,"BSTAR":0.0002133519,"MEAN_MOTION_DOT":0.00063281,"MEAN_MOTION_DDOT":2.56545e-7},{"OBJECT_NAME":"RASSVET-3 4","OBJECT_ID":"2026-061D","EPOCH":"2026-04-05T13:40:22.176768","MEAN_MOTION":15.89278696,"ECCENTRICITY":0.00258346,"INCLINATION":82.2975,"RA_OF_ASC_NODE":94.1524,"ARG_OF_PERICENTER":26.7891,"MEAN_ANOMALY":333.4708,"EPHEMERIS_TYPE":0,"CLASSIFICATION_TYPE":"U","NORAD_CAT_ID":68363,"ELEMENT_SET_NO":999,"REV_AT_EPOCH":204,"BSTAR":0.00021757197,"MEAN_MOTION_DOT":0.0006458,"MEAN_MOTION_DDOT":3.14003e-7},{"OBJECT_NAME":"RASSVET-3 5","OBJECT_ID":"2026-061E","EPOCH":"2026-04-05T13:40:09.199488","MEAN_MOTION":15.89300334,"ECCENTRICITY":0.00258024,"INCLINATION":82.2975,"RA_OF_ASC_NODE":94.1519,"ARG_OF_PERICENTER":26.8207,"MEAN_ANOMALY":333.4392,"EPHEMERIS_TYPE":0,"CLASSIFICATION_TYPE":"U","NORAD_CAT_ID":68364,"ELEMENT_SET_NO":999,"REV_AT_EPOCH":204,"BSTAR":0.00021746198,"MEAN_MOTION_DOT":0.00064613,"MEAN_MOTION_DDOT":3.15771e-7},{"OBJECT_NAME":"RASSVET-3 6","OBJECT_ID":"2026-061F","EPOCH":"2026-04-05T12:08:48.828480","MEAN_MOTION":15.8940701,"ECCENTRICITY":0.00256384,"INCLINATION":82.2975,"RA_OF_ASC_NODE":94.2228,"ARG_OF_PERICENTER":27.2134,"MEAN_ANOMALY":333.0474,"EPHEMERIS_TYPE":0,"CLASSIFICATION_TYPE":"U","NORAD_CAT_ID":68365,"ELEMENT_SET_NO":999,"REV_AT_EPOCH":203,"BSTAR":0.00021528411,"MEAN_MOTION_DOT":0.0006429,"MEAN_MOTION_DDOT":3.02809e-7},{"OBJECT_NAME":"RASSVET-3 7","OBJECT_ID":"2026-061G","EPOCH":"2026-04-05T13:39:48.194784","MEAN_MOTION":15.8933156,"ECCENTRICITY":0.00255975,"INCLINATION":82.2975,"RA_OF_ASC_NODE":94.1518,"ARG_OF_PERICENTER":26.8305,"MEAN_ANOMALY":333.4284,"EPHEMERIS_TYPE":0,"CLASSIFICATION_TYPE":"U","NORAD_CAT_ID":68366,"ELEMENT_SET_NO":999,"REV_AT_EPOCH":204,"BSTAR":0.00021939735,"MEAN_MOTION_DOT":0.00065257,"MEAN_MOTION_DDOT":3.45123e-7},{"OBJECT_NAME":"RASSVET-3 8","OBJECT_ID":"2026-061H","EPOCH":"2026-04-05T13:39:57.227040","MEAN_MOTION":15.89315272,"ECCENTRICITY":0.00256189,"INCLINATION":82.2975,"RA_OF_ASC_NODE":94.1517,"ARG_OF_PERICENTER":26.7029,"MEAN_ANOMALY":333.5555,"EPHEMERIS_TYPE":0,"CLASSIFICATION_TYPE":"U","NORAD_CAT_ID":68367,"ELEMENT_SET_NO":999,"REV_AT_EPOCH":204,"BSTAR":0.00022170923,"MEAN_MOTION_DOT":0.0006589,"MEAN_MOTION_DDOT":3.73562e-7},{"OBJECT_NAME":"RASSVET-3 9","OBJECT_ID":"2026-061J","EPOCH":"2026-04-05T10:35:57.320160","MEAN_MOTION":15.90146532,"ECCENTRICITY":0.00246565,"INCLINATION":82.2964,"RA_OF_ASC_NODE":94.2913,"ARG_OF_PERICENTER":27.6163,"MEAN_ANOMALY":332.6412,"EPHEMERIS_TYPE":0,"CLASSIFICATION_TYPE":"U","NORAD_CAT_ID":68368,"ELEMENT_SET_NO":999,"REV_AT_EPOCH":202,"BSTAR":0.00042691421,"MEAN_MOTION_DOT":0.00131706,"MEAN_MOTION_DDOT":4.969948e-6},{"OBJECT_NAME":"RASSVET-3 10","OBJECT_ID":"2026-061K","EPOCH":"2026-04-05T13:39:25.126848","MEAN_MOTION":15.89366082,"ECCENTRICITY":0.00254447,"INCLINATION":82.2975,"RA_OF_ASC_NODE":94.1513,"ARG_OF_PERICENTER":26.7564,"MEAN_ANOMALY":333.5014,"EPHEMERIS_TYPE":0,"CLASSIFICATION_TYPE":"U","NORAD_CAT_ID":68369,"ELEMENT_SET_NO":999,"REV_AT_EPOCH":204,"BSTAR":0.0002235878,"MEAN_MOTION_DOT":0.0006659,"MEAN_MOTION_DDOT":4.06321e-7},{"OBJECT_NAME":"RASSVET-3 11","OBJECT_ID":"2026-061L","EPOCH":"2026-04-05T13:38:54.612096","MEAN_MOTION":15.89401418,"ECCENTRICITY":0.00252418,"INCLINATION":82.2975,"RA_OF_ASC_NODE":94.1505,"ARG_OF_PERICENTER":26.6573,"MEAN_ANOMALY":333.599,"EPHEMERIS_TYPE":0,"CLASSIFICATION_TYPE":"U","NORAD_CAT_ID":68370,"ELEMENT_SET_NO":999,"REV_AT_EPOCH":204,"BSTAR":0.00021632721,"MEAN_MOTION_DOT":0.00064524,"MEAN_MOTION_DDOT":3.13464e-7},{"OBJECT_NAME":"RASSVET-3 12","OBJECT_ID":"2026-061M","EPOCH":"2026-04-05T13:38:26.636640","MEAN_MOTION":15.89466805,"ECCENTRICITY":0.00251732,"INCLINATION":82.2975,"RA_OF_ASC_NODE":94.1502,"ARG_OF_PERICENTER":26.6355,"MEAN_ANOMALY":333.6203,"EPHEMERIS_TYPE":0,"CLASSIFICATION_TYPE":"U","NORAD_CAT_ID":68371,"ELEMENT_SET_NO":999,"REV_AT_EPOCH":204,"BSTAR":0.00022022082,"MEAN_MOTION_DOT":0.00065886,"MEAN_MOTION_DDOT":3.75739e-7},{"OBJECT_NAME":"RASSVET-3 13","OBJECT_ID":"2026-061N","EPOCH":"2026-04-05T13:38:11.982336","MEAN_MOTION":15.894662,"ECCENTRICITY":0.00249861,"INCLINATION":82.2975,"RA_OF_ASC_NODE":94.1498,"ARG_OF_PERICENTER":26.5202,"MEAN_ANOMALY":333.7341,"EPHEMERIS_TYPE":0,"CLASSIFICATION_TYPE":"U","NORAD_CAT_ID":68372,"ELEMENT_SET_NO":999,"REV_AT_EPOCH":204,"BSTAR":0.00021846242,"MEAN_MOTION_DOT":0.00065334,"MEAN_MOTION_DDOT":3.5079e-7},{"OBJECT_NAME":"RASSVET-3 14","OBJECT_ID":"2026-061P","EPOCH":"2026-04-05T10:36:10.142784","MEAN_MOTION":15.89532022,"ECCENTRICITY":0.00249531,"INCLINATION":82.2974,"RA_OF_ASC_NODE":94.2921,"ARG_OF_PERICENTER":26.8025,"MEAN_ANOMALY":333.4529,"EPHEMERIS_TYPE":0,"CLASSIFICATION_TYPE":"U","NORAD_CAT_ID":68373,"ELEMENT_SET_NO":999,"REV_AT_EPOCH":202,"BSTAR":0.00023225715,"MEAN_MOTION_DOT":0.00069663,"MEAN_MOTION_DDOT":5.53854e-7},{"OBJECT_NAME":"RASSVET-3 15","OBJECT_ID":"2026-061Q","EPOCH":"2026-04-05T13:37:21.476352","MEAN_MOTION":15.89553797,"ECCENTRICITY":0.00247516,"INCLINATION":82.2975,"RA_OF_ASC_NODE":94.1491,"ARG_OF_PERICENTER":26.3985,"MEAN_ANOMALY":333.8541,"EPHEMERIS_TYPE":0,"CLASSIFICATION_TYPE":"U","NORAD_CAT_ID":68374,"ELEMENT_SET_NO":999,"REV_AT_EPOCH":204,"BSTAR":0.00021631428,"MEAN_MOTION_DOT":0.00064948,"MEAN_MOTION_DDOT":3.34752e-7}]
